NORAD_CAT_ID,OBJECT_NAME,OBJECT_TYPE,EPOCH,MEAN_MOTION,ECCENTRICITY,INCLINATION,RA_OF_ASC_NODE,ARG_OF_PERICENTER,MEAN_ANOMALY,BSTAR,MEAN_MOTION_DOT,MEAN_MOTION_DDOT,TLE_LINE0,TLE_LINE1,TLE_LINE2,SEMIMAJOR_AXIS,PERIOD,APOGEE,PERIGEE,DECAYED
55649.0,STARLINK-5469,PAYLOAD,2024-08-14 05:21:08,14.98301182,0.0003226,69.9994,187.7562,276.337,83.7422,-0.00027578,-3.38e-05,0.0,0 STARLINK-5469,1 55649U 23021X   24227.22301540 -.00003380  00000-0 -27578-3 0  9999,2 55649  69.9994 187.7562 0003226 276.3370  83.7422 14.98301182 82748,6950.282,96.109,574.389,569.905,0.0
55649.0,STARLINK-5469,PAYLOAD,2024-08-14 06:57:16,14.98301042,0.0002862,69.9998,187.5881,273.5495,86.5336,-0.00028943,-3.542e-05,0.0,0 STARLINK-5469,1 55649U 23021X   24227.28977697 -.00003542  00000-0 -28943-3 0  9994,2 55649  69.9998 187.5881 0002862 273.5495  86.5336 14.98301042 83051,6950.282,96.109,574.137,570.158,0.0
55649.0,STARLINK-5469,PAYLOAD,2024-08-14 14:57:55,14.98320639,0.0002856,70.0009,186.7486,275.2626,84.8207,-9.7332e-05,-1.254e-05,0.0,0 STARLINK-5469,1 55649U 23021X   24227.62356378 -.00001254  00000-0 -97332-4 0  9996,2 55649  70.0009 186.7486 0002856 275.2626  84.8207 14.98320639 82800,6950.222,96.108,574.072,570.102,0.0
55649.0,STARLINK-5469,PAYLOAD,2024-08-14 22:58:35,14.98323383,0.000311,70.0003,185.9066,275.0314,85.049,7.6032e-05,8.14e-06,0.0,0 STARLINK-5469,1 55649U 23021X   24227.95735886  .00000814  00000-0  76032-4 0  9990,2 55649  70.0003 185.9066 0003110 275.0314  85.0490 14.98323383 83150,6950.213,96.107,574.24,569.917,0.0
55649.0,STARLINK-5469,PAYLOAD,2024-08-15 05:23:07,14.98328292,0.0002756,69.9998,185.231,271.8725,88.2119,0.00012177,1.36e-05,0.0,0 STARLINK-5469,1 55649U 23021X   24228.22439592  .00001360  00000-0  12177-3 0  9992,2 55649  69.9998 185.2310 0002756 271.8725  88.2119 14.98328292 82897,6950.198,96.107,573.979,570.148,0.0
55649.0,STARLINK-5469,PAYLOAD,2024-08-15 14:59:55,14.98339866,0.0002986,69.9998,184.2226,271.0665,89.0152,0.00018131,2.072e-05,0.0,0 STARLINK-5469,1 55649U 23021X   24228.62494632  .00002072  00000-0  18131-3 0  9999,2 55649  69.9998 184.2226 0002986 271.0665  89.0152 14.98339866 83258,6950.162,96.106,574.103,569.952,0.0
55649.0,STARLINK-5469,PAYLOAD,2024-08-15 23:00:36,14.98323333,0.0003254,69.9993,183.3803,275.1412,84.9376,0.00054098,6.367e-05,0.0,0 STARLINK-5469,1 55649U 23021X   24228.95875123  .00006367  00000-0  54098-3 0  9996,2 55649  69.9993 183.3803 0003254 275.1412  84.9376 14.98323333 83308,6950.214,96.107,574.34,569.817,0.0
55649.0,STARLINK-5469,PAYLOAD,2024-08-16 03:49:00,14.9833496,0.0002997,70.0,182.8756,276.2164,83.8654,0.00062429,7.365e-05,0.0,0 STARLINK-5469,1 55649U 23021X   24229.15902864  .00007365  00000-0  62429-3 0  9998,2 55649  70.0000 182.8756 0002997 276.2164  83.8654 14.98334960 83035,6950.178,96.107,574.126,569.96,0.0
55649.0,STARLINK-5469,PAYLOAD,2024-08-16 07:01:16,14.98354784,0.0003233,70.0002,182.5391,275.6928,84.3863,0.0009779,0.00011602,0.0,0 STARLINK-5469,1 55649U 23021X   24229.29254940  .00011602  00000-0  97790-3 0  9996,2 55649  70.0002 182.5391 0003233 275.6928  84.3863 14.98354784 83353,6950.116,96.105,574.228,569.734,0.0
55649.0,STARLINK-5469,PAYLOAD,2024-08-16 21:26:28,14.98347354,0.0003351,70.001,181.024,273.3014,86.7761,6.4011e-05,6.71e-06,0.0,0 STARLINK-5469,1 55649U 23021X   24229.89338460  .00000671  00000-0  64011-4 0  9997,2 55649  70.0010 181.0240 0003351 273.3014  86.7761 14.98347354 83449,6950.139,96.106,574.333,569.675,0.0
55649.0,STARLINK-5469,PAYLOAD,2024-08-17 05:27:08,14.98348893,0.000327,70.0003,180.1811,276.3582,83.7205,7.6742e-05,8.23e-06,0.0,0 STARLINK-5469,1 55649U 23021X   24230.22718035  .00000823  00000-0  76742-4 0  9999,2 55649  70.0003 180.1811 0003270 276.3582  83.7205 14.98348893 83199,6950.134,96.106,574.272,569.727,0.0
55649.0,STARLINK-5469,PAYLOAD,2024-08-17 07:03:16,14.98349955,0.0003261,70.0007,180.0134,277.0986,82.9802,0.00010829,1.2e-05,0.0,0 STARLINK-5469,1 55649U 23021X   24230.29393929  .00001200  00000-0  10829-3 0  9990,2 55649  70.0007 180.0134 0003261 277.0986  82.9802 14.98349955 83505,6950.131,96.106,574.263,569.73,0.0
55649.0,STARLINK-5469,PAYLOAD,2024-08-17 19:52:19,14.98370231,0.000363,69.9996,178.6656,278.2619,81.8128,0.00058675,6.922e-05,0.0,0 STARLINK-5469,1 55649U 23021X   24230.82800249  .00006922  00000-0  58675-3 0  9994,2 55649  69.9996 178.6656 0003630 278.2619  81.8128 14.98370231 83282,6950.068,96.104,574.456,569.411,0.0
55649.0,STARLINK-5469,PAYLOAD,2024-08-18 03:53:00,14.98333964,0.0002475,70.0026,177.8271,257.9833,102.1048,-0.00052416,-6.342e-05,0.0,0 STARLINK-5469,1 55649U 23021X   24231.16180803 -.00006342  00000-0 -52416-3 0  9994,2 55649  70.0026 177.8271 0002475 257.9833 102.1048 14.98333964 83337,6950.181,96.107,573.766,570.325,0.0
55649.0,STARLINK-5469,PAYLOAD,2024-08-18 05:29:08,14.98336256,0.0002608,70.002,177.6585,268.4775,91.6086,-0.00029669,-3.632e-05,0.0,0 STARLINK-5469,1 55649U 23021X   24231.22857134 -.00003632  00000-0 -29669-3 0  9992,2 55649  70.0020 177.6585 0002608 268.4775  91.6086 14.98336256 83642,6950.174,96.107,573.851,570.226,0.0
55649.0,STARLINK-5469,PAYLOAD,2024-08-18 21:30:30,14.98319345,0.0002489,70.0021,175.9754,263.5557,96.5318,-0.00026023,-3.196e-05,0.0,0 STARLINK-5469,1 55649U 23021X   24231.89618069 -.00003196  00000-0 -26023-3 0  9993,2 55649  70.0021 175.9754 0002489 263.5557  96.5318 14.98319345 83443,6950.226,96.108,573.821,570.361,0.0
55649.0,STARLINK-5469,PAYLOAD,2024-08-19 05:31:11,14.98315014,0.0002629,70.0008,175.1338,262.5187,97.5673,-0.00014966,-1.877e-05,0.0,0 STARLINK-5469,1 55649U 23021X   24232.22999387 -.00001877  00000-0 -14966-3 0  9993,2 55649  70.0008 175.1338 0002629 262.5187  97.5673 14.98315014 83491,6950.239,96.108,573.931,570.277,0.0
55649.0,STARLINK-5469,PAYLOAD,2024-08-19 21:32:31,14.98319331,0.0003129,69.9998,173.4501,262.8609,97.2194,0.0001279,1.433e-05,0.0,0 STARLINK-5469,1 55649U 23021X   24232.89758460  .00001433  00000-0  12790-3 0  9990,2 55649  69.9998 173.4501 0003129 262.8609  97.2194 14.98319331 83599,6950.226,96.108,574.266,569.916,0.0
55649.0,STARLINK-5469,PAYLOAD,2024-08-20 05:33:11,14.98328436,0.0002902,70.0003,172.6093,258.7094,101.3739,0.00025355,2.933e-05,0.0,0 STARLINK-5469,1 55649U 23021X   24233.23138039  .00002933  00000-0  25355-3 0  9990,2 55649  70.0003 172.6093 0002902 258.7094 101.3739 14.98328436 83640,6950.198,96.107,574.08,570.046,0.0
55649.0,STARLINK-5469,PAYLOAD,2024-08-20 21:34:32,14.98329454,0.0003049,70.0015,170.9258,266.8174,93.2636,0.00040276,4.716e-05,0.0,0 STARLINK-5469,1 55649U 23021X   24233.89898697  .00004716  00000-0  40276-3 0  9995,2 55649  70.0015 170.9258 0003049 266.8174  93.2636 14.98329454 83746,6950.195,96.107,574.179,569.94,0.0
55649.0,STARLINK-5469,PAYLOAD,2024-08-21 05:35:12,14.98344001,0.000302,70.0021,170.0843,266.9775,93.1038,0.00063913,7.544e-05,0.0,0 STARLINK-5469,1 55649U 23021X   24234.23278324  .00007544  00000-0  63913-3 0  9998,2 55649  70.0021 170.0843 0003020 266.9775  93.1038 14.98344001 83796,6950.15,96.106,574.114,569.916,0.0
55649.0,STARLINK-5469,PAYLOAD,2024-08-21 20:00:25,14.98333331,0.0002898,70.0026,168.5698,268.1618,91.9209,2.6933e-05,2.28e-06,0.0,0 STARLINK-5469,1 55649U 23021X   24234.83362432  .00000228  00000-0  26933-4 0  9992,2 55649  70.0026 168.5698 0002898 268.1618  91.9209 14.98333331 84187,6950.183,96.107,574.062,570.033,0.0
55649.0,STARLINK-5469,PAYLOAD,2024-08-21 23:12:41,14.98331343,0.0002917,70.0023,168.2336,268.2078,91.8747,-7.171e-06,-1.79e-06,0.0,0 STARLINK-5469,1 55649U 23021X   24234.96714531 -.00000179  00000-0 -71710-5 0  9998,2 55649  70.0023 168.2336 0002917 268.2078  91.8747 14.98331343 83909,6950.189,96.107,574.081,570.026,0.0
